[{"OBJECT_NAME":"STARLINK-35435","OBJECT_ID":"2025-262J","EPOCH":"2025-12-01T20:00:01.999008","MEAN_MOTION":15.67299364,"ECCENTRICITY":0.0001425,"INCLINATION":42.9992,"RA_OF_ASC_NODE":135.1501,"ARG_OF_PERICENTER":287.5821,"MEAN_ANOMALY":211.301,"EPHEMERIS_TYPE":0,"CLASSIFICATION_TYPE":"U","NORAD_CAT_ID":66464,"ELEMENT_SET_NO":999,"REV_AT_EPOCH":388,"BSTAR":-0.021047,"MEAN_MOTION_DOT":-0.02047268,"MEAN_MOTION_DDOT":0},{"OBJECT_NAME":"STARLINK-35448","OBJECT_ID":"2025-262K","EPOCH":"2025-12-01T20:00:01.999008","MEAN_MOTION":15.67300171,"ECCENTRICITY":0.0001359,"INCLINATION":42.9991,"RA_OF_ASC_NODE":135.1354,"ARG_OF_PERICENTER":283.6482,"MEAN_ANOMALY":220.9896,"EPHEMERIS_TYPE":0,"CLASSIFICATION_TYPE":"U","NORAD_CAT_ID":66465,"ELEMENT_SET_NO":999,"REV_AT_EPOCH":388,"BSTAR":-0.021101,"MEAN_MOTION_DOT":-0.0205187,"MEAN_MOTION_DDOT":0},{"OBJECT_NAME":"STARLINK-35388","OBJECT_ID":"2025-262L","EPOCH":"2025-12-01T20:00:01.999008","MEAN_MOTION":15.67299934,"ECCENTRICITY":0.0001396,"INCLINATION":42.9991,"RA_OF_ASC_NODE":135.1302,"ARG_OF_PERICENTER":284.7193,"MEAN_ANOMALY":221.8313,"EPHEMERIS_TYPE":0,"CLASSIFICATION_TYPE":"U","NORAD_CAT_ID":66466,"ELEMENT_SET_NO":999,"REV_AT_EPOCH":388,"BSTAR":-0.021046,"MEAN_MOTION_DOT":-0.02047229,"MEAN_MOTION_DDOT":0},{"OBJECT_NAME":"STARLINK-35682","OBJECT_ID":"2025-262M","EPOCH":"2025-12-01T20:00:01.999008","MEAN_MOTION":15.67293683,"ECCENTRICITY":0.0001386,"INCLINATION":42.9989,"RA_OF_ASC_NODE":135.1403,"ARG_OF_PERICENTER":283.2065,"MEAN_ANOMALY":219.5147,"EPHEMERIS_TYPE":0,"CLASSIFICATION_TYPE":"U","NORAD_CAT_ID":66467,"ELEMENT_SET_NO":999,"REV_AT_EPOCH":388,"BSTAR":-0.020981,"MEAN_MOTION_DOT":-0.02041264,"MEAN_MOTION_DDOT":0},{"OBJECT_NAME":"STARLINK-35331","OBJECT_ID":"2025-262N","EPOCH":"2025-12-01T20:00:01.999008","MEAN_MOTION":15.67296377,"ECCENTRICITY":0.0001383,"INCLINATION":42.999,"RA_OF_ASC_NODE":135.1257,"ARG_OF_PERICENTER":286.3993,"MEAN_ANOMALY":222.072,"EPHEMERIS_TYPE":0,"CLASSIFICATION_TYPE":"U","NORAD_CAT_ID":66468,"ELEMENT_SET_NO":999,"REV_AT_EPOCH":388,"BSTAR":-0.021029,"MEAN_MOTION_DOT":-0.02045545,"MEAN_MOTION_DDOT":0},{"OBJECT_NAME":"STARLINK-35451","OBJECT_ID":"2025-262P","EPOCH":"2025-12-01T20:00:01.999008","MEAN_MOTION":15.67290593,"ECCENTRICITY":0.0001412,"INCLINATION":42.9993,"RA_OF_ASC_NODE":135.1107,"ARG_OF_PERICENTER":283.2489,"MEAN_ANOMALY":230.9777,"EPHEMERIS_TYPE":0,"CLASSIFICATION_TYPE":"U","NORAD_CAT_ID":66469,"ELEMENT_SET_NO":999,"REV_AT_EPOCH":388,"BSTAR":-0.020954,"MEAN_MOTION_DOT":-0.02038737,"MEAN_MOTION_DDOT":0},{"OBJECT_NAME":"STARLINK-35655","OBJECT_ID":"2025-262Q","EPOCH":"2025-12-01T20:00:01.999008","MEAN_MOTION":15.67292819,"ECCENTRICITY":0.0001381,"INCLINATION":42.9988,"RA_OF_ASC_NODE":135.1209,"ARG_OF_PERICENTER":285.1936,"MEAN_ANOMALY":225.1952,"EPHEMERIS_TYPE":0,"CLASSIFICATION_TYPE":"U","NORAD_CAT_ID":66470,"ELEMENT_SET_NO":999,"REV_AT_EPOCH":388,"BSTAR":-0.020964,"MEAN_MOTION_DOT":-0.02039716,"MEAN_MOTION_DDOT":0},{"OBJECT_NAME":"STARLINK-35569","OBJECT_ID":"2025-262R","EPOCH":"2025-12-01T20:00:01.999008","MEAN_MOTION":15.67298366,"ECCENTRICITY":0.0001354,"INCLINATION":42.9991,"RA_OF_ASC_NODE":135.116,"ARG_OF_PERICENTER":281.8573,"MEAN_ANOMALY":230.4477,"EPHEMERIS_TYPE":0,"CLASSIFICATION_TYPE":"U","NORAD_CAT_ID":66471,"ELEMENT_SET_NO":999,"REV_AT_EPOCH":388,"BSTAR":-0.021048,"MEAN_MOTION_DOT":-0.02047272,"MEAN_MOTION_DDOT":0},{"OBJECT_NAME":"STARLINK-35567","OBJECT_ID":"2025-262S","EPOCH":"2025-12-01T20:00:01.999008","MEAN_MOTION":15.6729771,"ECCENTRICITY":0.0001345,"INCLINATION":42.9993,"RA_OF_ASC_NODE":135.1062,"ARG_OF_PERICENTER":287.34,"MEAN_ANOMALY":228.7967,"EPHEMERIS_TYPE":0,"CLASSIFICATION_TYPE":"U","NORAD_CAT_ID":66472,"ELEMENT_SET_NO":999,"REV_AT_EPOCH":388,"BSTAR":-0.021013,"MEAN_MOTION_DOT":-0.02044222,"MEAN_MOTION_DDOT":0},{"OBJECT_NAME":"STARLINK-35568","OBJECT_ID":"2025-262T","EPOCH":"2025-12-01T20:00:01.999008","MEAN_MOTION":15.67295211,"ECCENTRICITY":0.000134,"INCLINATION":42.9991,"RA_OF_ASC_NODE":135.1012,"ARG_OF_PERICENTER":285.681,"MEAN_ANOMALY":232.3736,"EPHEMERIS_TYPE":0,"CLASSIFICATION_TYPE":"U","NORAD_CAT_ID":66473,"ELEMENT_SET_NO":999,"REV_AT_EPOCH":388,"BSTAR":-0.020985,"MEAN_MOTION_DOT":-0.02041641,"MEAN_MOTION_DDOT":0},{"OBJECT_NAME":"STARLINK-35620","OBJECT_ID":"2025-262U","EPOCH":"2025-12-01T20:00:01.999008","MEAN_MOTION":15.67299102,"ECCENTRICITY":0.0001307,"INCLINATION":42.9993,"RA_OF_ASC_NODE":135.0962,"ARG_OF_PERICENTER":283.5873,"MEAN_ANOMALY":236.3844,"EPHEMERIS_TYPE":0,"CLASSIFICATION_TYPE":"U","NORAD_CAT_ID":66474,"ELEMENT_SET_NO":999,"REV_AT_EPOCH":388,"BSTAR":-0.021051,"MEAN_MOTION_DOT":-0.02047485,"MEAN_MOTION_DDOT":0},{"OBJECT_NAME":"STARLINK-35538","OBJECT_ID":"2025-262V","EPOCH":"2025-12-01T20:00:01.999008","MEAN_MOTION":15.67296083,"ECCENTRICITY":0.0001383,"INCLINATION":42.9994,"RA_OF_ASC_NODE":135.0921,"ARG_OF_PERICENTER":282.9743,"MEAN_ANOMALY":238.9164,"EPHEMERIS_TYPE":0,"CLASSIFICATION_TYPE":"U","NORAD_CAT_ID":66475,"ELEMENT_SET_NO":999,"REV_AT_EPOCH":388,"BSTAR":-0.021028,"MEAN_MOTION_DOT":-0.02045361,"MEAN_MOTION_DDOT":0},{"OBJECT_NAME":"STARLINK-35372","OBJECT_ID":"2025-262W","EPOCH":"2025-12-01T20:00:01.999008","MEAN_MOTION":15.67289905,"ECCENTRICITY":0.0001235,"INCLINATION":42.9993,"RA_OF_ASC_NODE":135.0872,"ARG_OF_PERICENTER":281.7368,"MEAN_ANOMALY":242.0737,"EPHEMERIS_TYPE":0,"CLASSIFICATION_TYPE":"U","NORAD_CAT_ID":66476,"ELEMENT_SET_NO":999,"REV_AT_EPOCH":377,"BSTAR":-0.020928,"MEAN_MOTION_DOT":-0.02036329,"MEAN_MOTION_DDOT":0},{"OBJECT_NAME":"STARLINK-35354","OBJECT_ID":"2025-262X","EPOCH":"2025-12-01T20:00:01.999008","MEAN_MOTION":15.67299265,"ECCENTRICITY":0.0001297,"INCLINATION":42.9992,"RA_OF_ASC_NODE":135.077,"ARG_OF_PERICENTER":281.1684,"MEAN_ANOMALY":246.4715,"EPHEMERIS_TYPE":0,"CLASSIFICATION_TYPE":"U","NORAD_CAT_ID":66477,"ELEMENT_SET_NO":999,"REV_AT_EPOCH":388,"BSTAR":-0.021052,"MEAN_MOTION_DOT":-0.02047629,"MEAN_MOTION_DDOT":0},{"OBJECT_NAME":"STARLINK-35283","OBJECT_ID":"2025-262Y","EPOCH":"2025-12-01T20:00:01.999008","MEAN_MOTION":15.67291873,"ECCENTRICITY":0.0001375,"INCLINATION":42.999,"RA_OF_ASC_NODE":135.0717,"ARG_OF_PERICENTER":280.7073,"MEAN_ANOMALY":248.8518,"EPHEMERIS_TYPE":0,"CLASSIFICATION_TYPE":"U","NORAD_CAT_ID":66478,"ELEMENT_SET_NO":999,"REV_AT_EPOCH":388,"BSTAR":-0.020952,"MEAN_MOTION_DOT":-0.02038643,"MEAN_MOTION_DDOT":0},{"OBJECT_NAME":"STARLINK-35581","OBJECT_ID":"2025-262Z","EPOCH":"2025-12-01T20:00:01.999008","MEAN_MOTION":15.67298145,"ECCENTRICITY":0.0001371,"INCLINATION":42.9993,"RA_OF_ASC_NODE":135.0814,"ARG_OF_PERICENTER":283.5897,"MEAN_ANOMALY":242.1304,"EPHEMERIS_TYPE":0,"CLASSIFICATION_TYPE":"U","NORAD_CAT_ID":66479,"ELEMENT_SET_NO":999,"REV_AT_EPOCH":388,"BSTAR":-0.021009,"MEAN_MOTION_DOT":-0.02043942,"MEAN_MOTION_DDOT":0}]
