STARLINK-35435          
1 66464U 25262J   25335.83335647 -.02047268  00000+0 -21047-1 0  9995
2 66464  42.9992 135.1501 0001425 287.5821 211.3010 15.67299364  3883
STARLINK-35448          
1 66465U 25262K   25335.83335647 -.02051870  00000+0 -21101-1 0  9991
2 66465  42.9991 135.1354 0001359 283.6482 220.9896 15.67300171  3882
STARLINK-35388          
1 66466U 25262L   25335.83335647 -.02047229  00000+0 -21046-1 0  9993
2 66466  42.9991 135.1302 0001396 284.7193 221.8313 15.67299934  3886
STARLINK-35682          
1 66467U 25262M   25335.83335647 -.02041264  00000+0 -20981-1 0  9994
2 66467  42.9989 135.1403 0001386 283.2065 219.5147 15.67293683  3881
STARLINK-35331          
1 66468U 25262N   25335.83335647 -.02045545  00000+0 -21029-1 0  9995
2 66468  42.9990 135.1257 0001383 286.3993 222.0720 15.67296377  3881
STARLINK-35451          
1 66469U 25262P   25335.83335647 -.02038737  00000+0 -20954-1 0  9997
2 66469  42.9993 135.1107 0001412 283.2489 230.9777 15.67290593  3882
STARLINK-35655          
1 66470U 25262Q   25335.83335647 -.02039716  00000+0 -20964-1 0  9998
2 66470  42.9988 135.1209 0001381 285.1936 225.1952 15.67292819  3888
STARLINK-35569          
1 66471U 25262R   25335.83335647 -.02047272  00000+0 -21048-1 0  9999
2 66471  42.9991 135.1160 0001354 281.8573 230.4477 15.67298366  3883
STARLINK-35567          
1 66472U 25262S   25335.83335647 -.02044222  00000+0 -21013-1 0  9994
2 66472  42.9993 135.1062 0001345 287.3400 228.7967 15.67297710  3883
STARLINK-35568          
1 66473U 25262T   25335.83335647 -.02041641  00000+0 -20985-1 0  9994
2 66473  42.9991 135.1012 0001340 285.6810 232.3736 15.67295211  3887
STARLINK-35620          
1 66474U 25262U   25335.83335647 -.02047485  00000+0 -21051-1 0  9992
2 66474  42.9993 135.0962 0001307 283.5873 236.3844 15.67299102  3889
STARLINK-35538          
1 66475U 25262V   25335.83335647 -.02045361  00000+0 -21028-1 0  9998
2 66475  42.9994 135.0921 0001383 282.9743 238.9164 15.67296083  3887
STARLINK-35372          
1 66476U 25262W   25335.83335647 -.02036329  00000+0 -20928-1 0  9991
2 66476  42.9993 135.0872 0001235 281.7368 242.0737 15.67289905  3773
STARLINK-35354          
1 66477U 25262X   25335.83335647 -.02047629  00000+0 -21052-1 0  9996
2 66477  42.9992 135.0770 0001297 281.1684 246.4715 15.67299265  3889
STARLINK-35283          
1 66478U 25262Y   25335.83335647 -.02038643  00000+0 -20952-1 0  9991
2 66478  42.9990 135.0717 0001375 280.7073 248.8518 15.67291873  3887
STARLINK-35581          
1 66479U 25262Z   25335.83335647 -.02043942  00000+0 -21009-1 0  9994
2 66479  42.9993 135.0814 0001371 283.5897 242.1304 15.67298145  3889
